[Satellite]
VERSION=1.1
NAME=COSMOS 2058
NICKNAME=COSMOS 2058
TLE1=1 20465U 90010A   22342.35506654  .00001987  00000+0  15985-3 0  9999
TLE2=2 20465  82.4875 122.9687 0015891  36.1603 324.0691 14.99390165763683
STATUS=0
